NORAD_CAT_ID,OBJECT_NAME,OBJECT_TYPE,EPOCH,MEAN_MOTION,ECCENTRICITY,INCLINATION,RA_OF_ASC_NODE,ARG_OF_PERICENTER,MEAN_ANOMALY,BSTAR,MEAN_MOTION_DOT,MEAN_MOTION_DDOT,TLE_LINE0,TLE_LINE1,TLE_LINE2,SEMIMAJOR_AXIS,PERIOD,APOGEE,PERIGEE,DECAYED
53792.0,STARLINK-4739,PAYLOAD,2023-11-01 22:02:05,15.088455,0.000148,53.2167,169.0988,96.1066,264.0094,0.00021808,3.185e-05,0.0,0 STARLINK-4739,1 53792U 22111V   23305.91811579  .00003185  00000-0  21808-3 0  9996,2 53792  53.2167 169.0988 0001480  96.1066 264.0094 15.08845500 64049,6917.864,95.437,540.752,538.705,0.0
53792.0,STARLINK-4739,PAYLOAD,2023-11-02 07:34:24,15.08844032,0.0001403,53.216,167.3153,95.07,265.0452,0.00014185,1.971e-05,0.0,0 STARLINK-4739,1 53792U 22111V   23306.31555560  .00001971  00000-0  14185-3 0  9997,2 53792  53.2160 167.3153 0001403  95.0700 265.0452 15.08844032 64100,6917.868,95.437,540.704,538.762,0.0
53792.0,STARLINK-4739,PAYLOAD,2023-11-02 20:17:29,15.08838927,0.0001496,53.2172,164.9377,97.3001,262.8161,1.7247e-05,-1.3e-07,0.0,0 STARLINK-4739,1 53792U 22111V   23306.84547802 -.00000013  00000-0  17247-4 0  9995,2 53792  53.2172 164.9377 0001496  97.3001 262.8161 15.08838927 63382,6917.884,95.438,540.784,538.714,0.0
53792.0,STARLINK-4739,PAYLOAD,2023-11-02 21:52:52,15.0883853,0.0001484,53.2171,164.6401,96.8905,263.2256,5.4548e-06,-2.01e-06,0.0,0 STARLINK-4739,1 53792U 22111V   23306.91171803 -.00000201  00000-0  54548-5 0  9992,2 53792  53.2171 164.6401 0001484  96.8905 263.2256 15.08838530 64190,6917.885,95.438,540.776,538.723,0.0
53792.0,STARLINK-4739,PAYLOAD,2023-11-03 07:25:11,15.08831747,0.000137,53.217,162.8539,84.3727,275.7422,1.226e-05,-9.3e-07,0.0,0 STARLINK-4739,1 53792U 22111V   23307.30916622 -.00000093  00000-0  12260-4 0  9995,2 53792  53.2170 162.8539 0001370  84.3727 275.7422 15.08831747 63453,6917.906,95.438,540.718,538.823,0.0
53792.0,STARLINK-4739,PAYLOAD,2023-11-03 13:46:44,15.08837402,0.0001299,53.2173,161.6632,84.8592,275.2548,7.9543e-06,-1.61e-06,0.0,0 STARLINK-4739,1 53792U 22111V   23307.57412382 -.00000161  00000-0  79543-5 0  9992,2 53792  53.2173 161.6632 0001299  84.8592 275.2548 15.08837402 64293,6917.888,95.438,540.652,538.855,0.0
53792.0,STARLINK-4739,PAYLOAD,2023-11-03 20:08:16,15.08844355,0.000132,53.2171,160.4744,89.9668,270.1476,8.1236e-05,1.005e-05,0.0,0 STARLINK-4739,1 53792U 22111V   23307.83907765  .00001005  00000-0  81236-4 0  9993,2 53792  53.2171 160.4744 0001320  89.9668 270.1476 15.08844355 63532,6917.867,95.437,540.645,538.819,0.0
53792.0,STARLINK-4739,PAYLOAD,2023-11-03 21:43:39,15.08844422,0.0001294,53.2162,160.1769,87.7026,272.4114,7.2748e-05,8.7e-06,0.0,0 STARLINK-4739,1 53792U 22111V   23307.90531531  .00000870  00000-0  72748-4 0  9992,2 53792  53.2162 160.1769 0001294  87.7026 272.4114 15.08844422 64349,6917.867,95.437,540.627,538.837,0.0
53792.0,STARLINK-4739,PAYLOAD,2023-11-04 13:37:31,15.08833893,0.0001282,53.2162,157.2032,86.7738,273.3401,6.2632e-05,7.09e-06,0.0,0 STARLINK-4739,1 53792U 22111V   23308.56772246  .00000709  00000-0  62632-4 0  9997,2 53792  53.2162 157.2032 0001282  86.7738 273.3401 15.08833893 64445,6917.899,95.438,540.651,538.877,0.0
53792.0,STARLINK-4739,PAYLOAD,2023-11-04 19:59:03,15.08841911,0.0001317,53.2161,156.0135,86.616,273.4982,0.00010984,1.461e-05,0.0,0 STARLINK-4739,1 53792U 22111V   23308.83267985  .00001461  00000-0  10984-3 0  9994,2 53792  53.2161 156.0135 0001317  86.6160 273.4982 15.08841911 63682,6917.875,95.437,540.651,538.828,0.0
53792.0,STARLINK-4739,PAYLOAD,2023-11-04 21:34:26,15.08844358,0.0001294,53.2162,155.7164,87.0519,273.0621,0.00014126,1.961e-05,0.0,0 STARLINK-4739,1 53792U 22111V   23308.89891881  .00001961  00000-0  14126-3 0  9995,2 53792  53.2162 155.7164 0001294  87.0519 273.0621 15.08844358 64492,6917.867,95.437,540.627,538.837,0.0
53792.0,STARLINK-4739,PAYLOAD,2023-11-05 07:06:45,15.08843475,0.0001295,53.2159,153.9318,86.1976,273.9164,0.00017905,2.563e-05,0.0,0 STARLINK-4739,1 53792U 22111V   23309.29635937  .00002563  00000-0  17905-3 0  9995,2 53792  53.2159 153.9318 0001295  86.1976 273.9164 15.08843475 64554,6917.87,95.437,540.631,538.839,0.0
53792.0,STARLINK-4739,PAYLOAD,2023-11-05 21:25:13,15.0886031,0.0001463,53.2158,151.2554,92.9851,267.1309,0.00053886,8.303e-05,0.0,0 STARLINK-4739,1 53792U 22111V   23309.89251402  .00008303  00000-0  53886-3 0  9998,2 53792  53.2158 151.2554 0001463  92.9851 267.1309 15.08860310 64643,6917.818,95.436,540.695,538.671,0.0
53792.0,STARLINK-4739,PAYLOAD,2023-11-05 23:00:36,15.08864874,0.0001428,53.2157,150.9579,89.1592,270.9564,0.00074075,0.00011529,0.0,0 STARLINK-4739,1 53792U 22111V   23309.95875330  .00011529  00000-0  74075-3 0  9994,2 53792  53.2157 150.9579 0001428  89.1592 270.9564 15.08864874 63852,6917.804,95.436,540.657,538.681,0.0
53792.0,STARLINK-4739,PAYLOAD,2023-11-06 06:57:31,15.0886052,0.0001414,53.2154,149.4712,88.373,271.7424,0.00057746,8.919e-05,0.0,0 STARLINK-4739,1 53792U 22111V   23310.28995214  .00008919  00000-0  57746-3 0  9991,2 53792  53.2154 149.4712 0001414  88.3730 271.7424 15.08860520 63905,6917.818,95.436,540.661,538.704,0.0
53792.0,STARLINK-4739,PAYLOAD,2023-11-06 13:19:04,15.08850568,0.0001545,53.2165,148.2819,92.7558,267.3611,0.0001975,2.858e-05,0.0,0 STARLINK-4739,1 53792U 22111V   23310.55491242  .00002858  00000-0  19750-3 0  9992,2 53792  53.2165 148.2819 0001545  92.7558 267.3611 15.08850568 64747,6917.848,95.437,540.782,538.644,0.0
53792.0,STARLINK-4739,PAYLOAD,2023-11-06 19:40:36,15.08853324,0.0001391,53.2155,147.0926,94.3126,265.8025,0.00024999,3.694e-05,0.0,0 STARLINK-4739,1 53792U 22111V   23310.81986986  .00003694  00000-0  24999-3 0  9995,2 53792  53.2155 147.0926 0001391  94.3126 265.8025 15.08853324 63980,6917.84,95.437,540.667,538.742,0.0
53792.0,STARLINK-4739,PAYLOAD,2023-11-07 06:48:19,15.08833675,0.0001223,53.217,145.0106,94.2928,265.8204,-0.00016328,-2.885e-05,0.0,0 STARLINK-4739,1 53792U 22111V   23311.28355586 -.00002885  00000-0 -16328-3 0  9993,2 53792  53.2170 145.0106 0001223  94.2928 265.8204 15.08833675 64053,6917.9,95.438,540.611,538.919,0.0
53792.0,STARLINK-4739,PAYLOAD,2023-11-07 19:31:24,15.08825931,0.0001179,53.2162,142.6316,88.7381,271.3746,-0.00029985,-5.055e-05,0.0,0 STARLINK-4739,1 53792U 22111V   23311.81348152 -.00005055  00000-0 -29985-3 0  9998,2 53792  53.2162 142.6316 0001179  88.7381 271.3746 15.08825931 64139,6917.923,95.438,540.604,538.973,0.0
53792.0,STARLINK-4739,PAYLOAD,2023-11-08 13:00:39,15.08828758,0.0001084,53.2157,139.3626,84.4951,275.6165,6.2175e-05,7.02e-06,0.0,0 STARLINK-4739,1 53792U 22111V   23312.54212801  .00000702  00000-0  62175-4 0  9991,2 53792  53.2157 139.3626 0001084  84.4951 275.6165 15.08828758 65044,6917.915,95.438,540.53,539.03,0.0
53792.0,STARLINK-4739,PAYLOAD,2023-11-08 19:22:12,15.08834583,0.0001099,53.2167,138.1724,86.3287,273.7831,0.00022624,3.314e-05,0.0,0 STARLINK-4739,1 53792U 22111V   23312.80708868  .00003314  00000-0  22624-3 0  9999,2 53792  53.2167 138.1724 0001099  86.3287 273.7831 15.08834583 64287,6917.897,95.438,540.522,539.002,0.0
53792.0,STARLINK-4739,PAYLOAD,2023-11-09 04:54:31,15.08839076,0.0001058,53.2167,136.3882,84.8306,275.2807,0.00033141,4.99e-05,0.0,0 STARLINK-4739,1 53792U 22111V   23313.20452988  .00004990  00000-0  33141-3 0  9990,2 53792  53.2167 136.3882 0001058  84.8306 275.2807 15.08839076 65140,6917.883,95.438,540.48,539.016,0.0
53792.0,STARLINK-4739,PAYLOAD,2023-11-09 19:12:59,15.08853669,0.0001041,53.2162,133.7115,81.5891,278.5219,0.00057065,8.809e-05,0.0,0 STARLINK-4739,1 53792U 22111V   23313.80068719  .00008809  00000-0  57065-3 0  9995,2 53792  53.2162 133.7115 0001041  81.5891 278.5219 15.08853669 65237,6917.839,95.437,540.424,538.983,0.0
53792.0,STARLINK-4739,PAYLOAD,2023-11-10 11:06:50,15.08844795,0.0001011,53.2158,130.7396,86.2923,273.8185,6.9187e-05,8.14e-06,0.0,0 STARLINK-4739,1 53792U 22111V   23314.46308629  .00000814  00000-0  69187-4 0  9992,2 53792  53.2158 130.7396 0001011  86.2923 273.8185 15.08844795 64537,6917.866,95.437,540.43,539.031,0.0
53792.0,STARLINK-4739,PAYLOAD,2023-11-10 19:03:46,15.08839451,0.000104,53.2159,129.2518,83.8839,276.2271,1.9053e-05,1.5e-07,0.0,0 STARLINK-4739,1 53792U 22111V   23314.79428864  .00000015  00000-0  19053-4 0  9992,2 53792  53.2159 129.2518 0001040  83.8839 276.2271 15.08839451 65388,6917.882,95.438,540.467,539.028,0.0
53792.0,STARLINK-4739,PAYLOAD,2023-11-11 04:36:05,15.08844863,0.0001081,53.2163,127.4673,82.4644,277.6471,0.00012016,1.625e-05,0.0,0 STARLINK-4739,1 53792U 22111V   23315.19172674  .00001625  00000-0  12016-3 0  9991,2 53792  53.2163 127.4673 0001081  82.4644 277.6471 15.08844863 65446,6917.866,95.437,540.478,538.983,0.0
53792.0,STARLINK-4739,PAYLOAD,2023-11-11 18:54:33,15.08848051,0.0001176,53.2167,124.7914,84.2833,275.8293,0.00010916,1.45e-05,0.0,0 STARLINK-4739,1 53792U 22111V   23315.78788320  .00001450  00000-0  10916-3 0  9990,2 53792  53.2167 124.7914 0001176  84.2833 275.8293 15.08848051 64739,6917.856,95.437,540.534,538.907,0.0
53792.0,STARLINK-4739,PAYLOAD,2023-11-11 20:29:56,15.08848336,0.0001191,53.2167,124.4941,84.7475,275.3653,0.00010457,1.377e-05,0.0,0 STARLINK-4739,1 53792U 22111V   23315.85412219  .00001377  00000-0  10457-3 0  9997,2 53792  53.2167 124.4941 0001191  84.7475 275.3653 15.08848336 65541,6917.855,95.437,540.544,538.896,0.0
53792.0,STARLINK-4739,PAYLOAD,2023-11-12 10:48:24,15.08840803,0.0001217,53.2179,121.8176,88.8174,271.2958,0.00011131,1.484e-05,0.0,0 STARLINK-4739,1 53792U 22111V   23316.45028800  .00001484  00000-0  11131-3 0  9992,2 53792  53.2179 121.8176 0001217  88.8174 271.2958 15.08840803 64830,6917.878,95.438,540.585,538.901,0.0
53792.0,STARLINK-4739,PAYLOAD,2023-11-12 18:45:20,15.08843166,0.000121,53.2178,120.3307,87.4468,272.6662,0.00012075,1.635e-05,0.0,0 STARLINK-4739,1 53792U 22111V   23316.78148622  .00001635  00000-0  12075-3 0  9999,2 53792  53.2178 120.3307 0001210  87.4468 272.6662 15.08843166 65689,6917.871,95.437,540.573,538.899,0.0
